{
    "links": {
        "self": "http://www.neowsapp.com/rest/v1/neo/3843402?api_key=iIulBulltgU6a56xZRHN4H3l9WmuAYTsLGpBGhQ2"
    },
    "id": "3843402",
    "neo_reference_id": "3843402",
    "name": "(2019 OB3)",
    "designation": "2019 OB3",
    "nasa_jpl_url": "http://ssd.jpl.nasa.gov/sbdb.cgi?sstr=3843402",
    "absolute_magnitude_h": 24.1,
    "estimated_diameter": {
        "kilometers": {
            "estimated_diameter_min": 0.040230458,
            "estimated_diameter_max": 0.0899580388
        },
        "meters": {
            "estimated_diameter_min": 40.2304579834,
            "estimated_diameter_max": 89.9580388169
        },
        "miles": {
            "estimated_diameter_min": 0.0249980399,
            "estimated_diameter_max": 0.0558973165
        },
        "feet": {
            "estimated_diameter_min": 131.9896957704,
            "estimated_diameter_max": 295.1379320721
        }
    },
    "is_potentially_hazardous_asteroid": false,
    "close_approach_data": [
        {
            "close_approach_date": "2019-08-02",
            "close_approach_date_full": "2019-Aug-02 20:33",
            "epoch_date_close_approach": 1564777980000,
            "relative_velocity": {
                "kilometers_per_second": "3.970416825",
                "kilometers_per_hour": "14293.5005699465",
                "miles_per_hour": "8881.4253958093"
            },
            "miss_distance": {
                "astronomical": "0.1972470892",
                "lunar": "76.7291176988",
                "kilometers": "29507744.408020004",
                "miles": "18335262.1577398952"
            },
            "orbiting_body": "Earth"
        }
    ],
    "orbital_data": {
        "orbit_id": "5",
        "orbit_determination_date": "2019-10-26 05:51:49",
        "first_observation_date": "2019-07-28",
        "last_observation_date": "2019-08-11",
        "data_arc_in_days": 14,
        "observations_used": 27,
        "orbit_uncertainty": "8",
        "minimum_orbit_intersection": ".182283",
        "jupiter_tisserand_invariant": "3.597",
        "epoch_osculation": "2458694.5",
        "eccentricity": ".4427448872322278",
        "semi_major_axis": "2.119707692774505",
        "inclination": "3.90828251922041",
        "ascending_node_longitude": "229.4000155211711",
        "orbital_period": "1127.229616523349",
        "perihelion_distance": "1.181217949371771",
        "perihelion_argument": "83.55776503791928",
        "aphelion_distance": "3.058197436177239",
        "perihelion_time": "2458697.259614106968",
        "mean_anomaly": "359.1186701769134",
        "mean_motion": ".3193670523937506",
        "equinox": "J2000",
        "orbit_class": {
            "orbit_class_type": "AMO",
            "orbit_class_description": "Near-Earth asteroid orbits similar to that of 1221 Amor",
            "orbit_class_range": "1.017 AU < q (perihelion) < 1.3 AU"
        }
    },
    "is_sentry_object": false
}